[{"OBJECT_NAME":"OBJECT A","OBJECT_ID":"2023-085A","EPOCH":"2026-03-09T21:42:39.504096","MEAN_MOTION":15.28003151,"ECCENTRICITY":0.00073195,"INCLINATION":97.4858,"RA_OF_ASC_NODE":178.2033,"ARG_OF_PERICENTER":32.2499,"MEAN_ANOMALY":327.9186,"EPHEMERIS_TYPE":0,"CLASSIFICATION_TYPE":"U","NORAD_CAT_ID":57004,"ELEMENT_SET_NO":999,"REV_AT_EPOCH":15139,"BSTAR":0.00063583858,"MEAN_MOTION_DOT":0.0001733,"MEAN_MOTION_DDOT":0},{"OBJECT_NAME":"STARLINK-31583","OBJECT_ID":"2024-060X","EPOCH":"2026-03-09T12:26:21.176160","MEAN_MOTION":15.27568547,"ECCENTRICITY":0.00021447,"INCLINATION":43.0005,"RA_OF_ASC_NODE":249.8313,"ARG_OF_PERICENTER":287.1172,"MEAN_ANOMALY":72.9444,"EPHEMERIS_TYPE":0,"CLASSIFICATION_TYPE":"U","NORAD_CAT_ID":59369,"ELEMENT_SET_NO":999,"REV_AT_EPOCH":11016,"BSTAR":0.00010757897,"MEAN_MOTION_DOT":2.698e-5,"MEAN_MOTION_DDOT":0}]
